{
  "norad_id": 49740,
  "name": "STARLINK-3226",
  "history": [
    {
      "epoch": "2026-04-12T23:59:15.162720Z",
      "apogee_km": 540.705434489616,
      "perigee_km": 538.785445397235,
      "latitude_deg": -7.273205667911452e-06,
      "longitude_deg": 154.05925882207595,
      "height_km": 540.6131585991484,
      "semi_major_axis_km": 6917.882439943425,
      "eccentricity": 0.00013877,
      "inclination_deg": 53.2186,
      "raan_deg": 355.069,
      "arg_perigee_deg": 88.3239,
      "mean_anomaly_deg": 271.7912,
      "mean_motion_rev_day": 15.08839329
    },
    {
      "epoch": "2026-04-14T20:30:03.199680Z",
      "apogee_km": 540.6584655753431,
      "perigee_km": 538.8279944664791,
      "latitude_deg": 2.012250679163005e-05,
      "longitude_deg": -163.79477099476526,
      "height_km": 540.6415727907058,
      "semi_major_axis_km": 6917.880230020911,
      "eccentricity": 0.0001323,
      "inclination_deg": 53.2185,
      "raan_deg": 346.7432,
      "arg_perigee_deg": 90.1547,
      "mean_anomaly_deg": 269.9597,
      "mean_motion_rev_day": 15.08840052
    },
    {
      "epoch": "2026-04-15T20:20:50.239680Z",
      "apogee_km": 540.7031509059152,
      "perigee_km": 538.7868975851989,
      "latitude_deg": 1.2686092297221363e-05,
      "longitude_deg": -166.9312114547628,
      "height_km": 540.6393004246936,
      "semi_major_axis_km": 6917.882024245557,
      "eccentricity": 0.0001385,
      "inclination_deg": 53.2176,
      "raan_deg": 342.2821,
      "arg_perigee_deg": 89.9154,
      "mean_anomaly_deg": 270.1997,
      "mean_motion_rev_day": 15.08839465
    },
    {
      "epoch": "2026-04-16T09:03:55.136736Z",
      "apogee_km": 540.7103194807805,
      "perigee_km": 538.7567128470155,
      "latitude_deg": 4.746200357207849e-06,
      "longitude_deg": -0.602731547187002,
      "height_km": 540.6209533101392,
      "semi_major_axis_km": 6917.870516163897,
      "eccentricity": 0.0001412,
      "inclination_deg": 53.2184,
      "raan_deg": 339.9033,
      "arg_perigee_deg": 89.5129,
      "mean_anomaly_deg": 270.6025,
      "mean_motion_rev_day": 15.0884323
    },
    {
      "epoch": "2026-04-17T21:37:47.166240Z",
      "apogee_km": 540.7032051952974,
      "perigee_km": 538.7711812906091,
      "latitude_deg": 6.938977128792096e-05,
      "longitude_deg": 162.58918042315926,
      "height_km": 540.6510429654835,
      "semi_major_axis_km": 6917.874193242953,
      "eccentricity": 0.00013964,
      "inclination_deg": 53.2185,
      "raan_deg": 333.0636,
      "arg_perigee_deg": 91.0728,
      "mean_anomaly_deg": 269.0425,
      "mean_motion_rev_day": 15.08842027
    },
    {
      "epoch": "2026-04-18T21:28:34.214016Z",
      "apogee_km": 540.7068425583693,
      "perigee_km": 538.7643039398008,
      "latitude_deg": -3.3312452411384256e-06,
      "longitude_deg": 159.4536571251498,
      "height_km": 540.6384706709408,
      "semi_major_axis_km": 6917.872573249085,
      "eccentricity": 0.0001404,
      "inclination_deg": 53.2193,
      "raan_deg": 328.6035,
      "arg_perigee_deg": 90.4158,
      "mean_anomaly_deg": 269.6995,
      "mean_motion_rev_day": 15.08842557
    },
    {
      "epoch": "2026-04-19T21:19:21.633312Z",
      "apogee_km": 540.6672935265997,
      "perigee_km": 538.8285197184186,
      "latitude_deg": -3.418489606138077e-05,
      "longitude_deg": 156.31711149138084,
      "height_km": 540.6545979859904,
      "semi_major_axis_km": 6917.884906622508,
      "eccentricity": 0.0001329,
      "inclination_deg": 53.2181,
      "raan_deg": 324.1439,
      "arg_perigee_deg": 90.677,
      "mean_anomaly_deg": 269.4374,
      "mean_motion_rev_day": 15.08838522
    },
    {
      "epoch": "2026-04-20T06:51:40.795776Z",
      "apogee_km": 540.6422796635406,
      "perigee_km": 538.9224849051052,
      "latitude_deg": 1.558224311861532e-05,
      "longitude_deg": 11.06046542923647,
      "height_km": 540.591138140822,
      "semi_major_axis_km": 6917.919382284323,
      "eccentricity": 0.0001243,
      "inclination_deg": 53.2173,
      "raan_deg": 322.3588,
      "arg_perigee_deg": 84.1862,
      "mean_anomaly_deg": 275.9272,
      "mean_motion_rev_day": 15.08827243
    },
    {
      "epoch": "2026-04-21T19:25:33.016224Z",
      "apogee_km": 540.6267342183282,
      "perigee_km": 538.8751249945517,
      "latitude_deg": -1.6982971375458966e-05,
      "longitude_deg": 174.25260142860685,
      "height_km": 540.6504353756998,
      "semi_major_axis_km": 6917.88792960644,
      "eccentricity": 0.0001266,
      "inclination_deg": 53.218,
      "raan_deg": 315.5202,
      "arg_perigee_deg": 90.2358,
      "mean_anomaly_deg": 269.8779,
      "mean_motion_rev_day": 15.08837533
    },
    {
      "epoch": "2026-04-22T19:16:19.966368Z",
      "apogee_km": 540.6248957308699,
      "perigee_km": 538.8667849858202,
      "latitude_deg": 4.0915857520051336e-05,
      "longitude_deg": 171.1165806040355,
      "height_km": 540.6937247126633,
      "semi_major_axis_km": 6917.882840358345,
      "eccentricity": 0.00012707,
      "inclination_deg": 53.2168,
      "raan_deg": 311.0591,
      "arg_perigee_deg": 93.3993,
      "mean_anomaly_deg": 266.7145,
      "mean_motion_rev_day": 15.08839198
    },
    {
      "epoch": "2026-04-24T18:57:54.034272Z",
      "apogee_km": 540.5593992678769,
      "perigee_km": 538.9267795667738,
      "latitude_deg": -1.8816110800946222e-05,
      "longitude_deg": 164.84141006368665,
      "height_km": 540.8400319251504,
      "semi_major_axis_km": 6917.880089417325,
      "eccentricity": 0.000118,
      "inclination_deg": 53.217,
      "raan_deg": 302.1346,
      "arg_perigee_deg": 104.2533,
      "mean_anomaly_deg": 255.859,
      "mean_motion_rev_day": 15.08840098
    },
    {
      "epoch": "2026-04-25T18:48:41.012064Z",
      "apogee_km": 540.6295502854427,
      "perigee_km": 538.8724067389012,
      "latitude_deg": 1.3865895435478642e-05,
      "longitude_deg": 161.70825719025507,
      "height_km": 540.5544464565847,
      "semi_major_axis_km": 6917.887978512172,
      "eccentricity": 0.000127,
      "inclination_deg": 53.2171,
      "raan_deg": 297.6765,
      "arg_perigee_deg": 83.967,
      "mean_anomaly_deg": 276.1467,
      "mean_motion_rev_day": 15.08837517
    },
    {
      "epoch": "2026-04-26T18:39:28.141056Z",
      "apogee_km": 540.645314023539,
      "perigee_km": 538.8293720084976,
      "latitude_deg": 2.147505484720373e-05,
      "longitude_deg": 158.57245460296707,
      "height_km": 540.5409828077532,
      "semi_major_axis_km": 6917.874343016018,
      "eccentricity": 0.00013125,
      "inclination_deg": 53.2174,
      "raan_deg": 293.2164,
      "arg_perigee_deg": 84.1756,
      "mean_anomaly_deg": 275.9386,
      "mean_motion_rev_day": 15.08841978
    },
    {
      "epoch": "2026-04-27T20:05:36.773088Z",
      "apogee_km": 540.5830772080853,
      "perigee_km": 538.7028246174268,
      "latitude_deg": 1.4417844193881918e-05,
      "longitude_deg": 131.23417500923966,
      "height_km": 540.5625298735957,
      "semi_major_axis_km": 6917.779950912755,
      "eccentricity": 0.0001359,
      "inclination_deg": 53.2166,
      "raan_deg": 288.4587,
      "arg_perigee_deg": 91.4595,
      "mean_anomaly_deg": 268.6553,
      "mean_motion_rev_day": 15.0887286
    },
    {
      "epoch": "2026-04-28T19:56:26.414592Z",
      "apogee_km": 540.8263396072152,
      "perigee_km": 538.732978026258,
      "latitude_deg": 6.392381168878431e-06,
      "longitude_deg": 128.08426363797395,
      "height_km": 540.2567195242506,
      "semi_major_axis_km": 6917.916658816736,
      "eccentricity": 0.0001513,
      "inclination_deg": 53.2166,
      "raan_deg": 283.995,
      "arg_perigee_deg": 66.4306,
      "mean_anomaly_deg": 293.6845,
      "mean_motion_rev_day": 15.08828134
    }
  ]
}